start=new Date('2022-06-14T00:00:00.000Z').valueOf();
sats=[{"ARG_OF_PERICENTER":"40.2839","REV_AT_EPOCH":"3266","CENTER_NAME":"EARTH","MEAN_MOTION":"15.08852721","MEAN_ELEMENT_THEORY":"SGP4","GP_ID":"206061519","BSTAR":"0.00008052500000","APOAPSIS":"541.300","OBJECT_NAME":"STARLINK-3162","TLE_LINE1":"1 49411U 21104D   22164.43870813  .00000994  00000-0  80525-4 0  9992","RCS_SIZE":"LARGE","EPOCH":"2022-06-13T10:31:44.382432","RA_OF_ASC_NODE":"227.9771","PERIAPSIS":"538.113","MEAN_ANOMALY":"319.8323","CLASSIFICATION_TYPE":"U","ECCENTRICITY":"0.00023040","EPHEMERIS_TYPE":"0","SITE":"AFETR","DECAY_DATE":null,"REF_FRAME":"TEME","ELEMENT_SET_NO":"999","OBJECT_TYPE":"PAYLOAD","TLE_LINE2":"2 49411  53.2162 227.9771 0002304  40.2839 319.8323 15.08852721 32665","COUNTRY_CODE":"US","SEMIMAJOR_AXIS":"6917.842","NORAD_CAT_ID":"49411","FILE":"3494620","MEAN_MOTION_DDOT":"0.0000000000000","OBJECT_ID":"2021-104D","INCLINATION":"53.2162","LAUNCH_DATE":"2021-11-13","PERIOD":"95.437","MEAN_MOTION_DOT":"0.00000994","TIME_SYSTEM":"UTC"},{"LAUNCH_DATE":"2021-11-13","TIME_SYSTEM":"UTC","MEAN_MOTION_DOT":"-0.00000372","PERIOD":"95.438","NORAD_CAT_ID":"49412","FILE":"3494620","SEMIMAJOR_AXIS":"6917.908","INCLINATION":"53.2162","OBJECT_ID":"2021-104E","MEAN_MOTION_DDOT":"0.0000000000000","OBJECT_TYPE":"PAYLOAD","TLE_LINE2":"2 49412  53.2162 237.9347 0002410  30.9700 329.1434 15.08830813 32538","ELEMENT_SET_NO":"999","COUNTRY_CODE":"US","SITE":"AFETR","EPHEMERIS_TYPE":"0","REF_FRAME":"TEME","DECAY_DATE":null,"PERIAPSIS":"538.106","MEAN_ANOMALY":"329.1434","ECCENTRICITY":"0.00024100","CLASSIFICATION_TYPE":"U","OBJECT_NAME":"STARLINK-3144","APOAPSIS":"541.441","RA_OF_ASC_NODE":"237.9347","EPOCH":"2022-06-13T10:46:19.962624","TLE_LINE1":"1 49412U 21104E   22164.44884216 -.00000372  00000-0 -52341-5 0  9994","RCS_SIZE":"LARGE","MEAN_MOTION":"15.08830813","CENTER_NAME":"EARTH","BSTAR":"-0.00000523410000","GP_ID":"206060267","MEAN_ELEMENT_THEORY":"SGP4","ARG_OF_PERICENTER":"30.9700","REV_AT_EPOCH":"3253"},{"REF_FRAME":"TEME","DECAY_DATE":null,"SITE":"AFETR","EPHEMERIS_TYPE":"0","COUNTRY_CODE":"US","OBJECT_TYPE":"PAYLOAD","TLE_LINE2":"2 49413  53.2126 227.9961 0002559  32.4290 327.6859 15.08851433 32664","ELEMENT_SET_NO":"999","INCLINATION":"53.2126","OBJECT_ID":"2021-104F","MEAN_MOTION_DDOT":"0.0000000000000","FILE":"3494620","NORAD_CAT_ID":"49413","SEMIMAJOR_AXIS":"6917.845","TIME_SYSTEM":"UTC","MEAN_MOTION_DOT":"0.00002241","PERIOD":"95.437","LAUNCH_DATE":"2021-11-13","REV_AT_EPOCH":"3266","ARG_OF_PERICENTER":"32.4290","BSTAR":"0.00015884000000","MEAN_ELEMENT_THEORY":"SGP4","GP_ID":"206061017","MEAN_MOTION":"15.08851433","CENTER_NAME":"EARTH","RA_OF_ASC_NODE":"227.9961","EPOCH":"2022-06-13T10:26:27.135456","TLE_LINE1":"1 49413U 21104F   22164.43503629  .00002241  00000-0  15884-3 0  9994","RCS_SIZE":"LARGE","OBJECT_NAME":"STARLINK-3157","APOAPSIS":"541.481","ECCENTRICITY":"0.00025590","CLASSIFICATION_TYPE":"U","PERIAPSIS":"537.940","MEAN_ANOMALY":"327.6859"},{"PERIOD":"95.438","MEAN_MOTION_DOT":"-0.00000181","TIME_SYSTEM":"UTC","LAUNCH_DATE":"2021-11-13","MEAN_MOTION_DDOT":"0.0000000000000","OBJECT_ID":"2021-104G","INCLINATION":"53.2166","SEMIMAJOR_AXIS":"6917.898","NORAD_CAT_ID":"49414","FILE":"3494347","COUNTRY_CODE":"US","ELEMENT_SET_NO":"999","TLE_LINE2":"2 49414  53.2166 237.6654 0002292  35.4744 324.6400 15.08834184 33627","OBJECT_TYPE":"PAYLOAD","DECAY_DATE":null,"REF_FRAME":"TEME","EPHEMERIS_TYPE":"0","SITE":"AFETR","CLASSIFICATION_TYPE":"U","ECCENTRICITY":"0.00022920","PERIAPSIS":"538.178","MEAN_ANOMALY":"324.6400","TLE_LINE1":"1 49414U 21104G   22164.50772018 -.00000181  00000-0  67628-5 0  9990","RCS_SIZE":"LARGE","EPOCH":"2022-06-13T12:11:07.023552","RA_OF_ASC_NODE":"237.6654","APOAPSIS":"541.349","OBJECT_NAME":"STARLINK-3146","GP_ID":"206030483","MEAN_ELEMENT_THEORY":"SGP4","BSTAR":"0.00000676280000","CENTER_NAME":"EARTH","MEAN_MOTION":"15.08834184","REV_AT_EPOCH":"3362","ARG_OF_PERICENTER":"35.4744"},{"PERIAPSIS":"537.784","MEAN_ANOMALY":"329.2692","CLASSIFICATION_TYPE":"U","ECCENTRICITY":"0.00028330","APOAPSIS":"541.704","OBJECT_NAME":"STARLINK-3159","RCS_SIZE":"LARGE","TLE_LINE1":"1 49415U 21104H   22164.49759538  .00001306  00000-0  10017-3 0  9998","EPOCH":"2022-06-13T11:56:32.240832","RA_OF_ASC_NODE":"227.7168","CENTER_NAME":"EARTH","MEAN_MOTION":"15.08840446","MEAN_ELEMENT_THEORY":"SGP4","GP_ID":"206062019","BSTAR":"0.00010017000000","ARG_OF_PERICENTER":"30.8466","REV_AT_EPOCH":"3266","LAUNCH_DATE":"2021-11-13","PERIOD":"95.438","MEAN_MOTION_DOT":"0.00001306","TIME_SYSTEM":"UTC","SEMIMAJOR_AXIS":"6917.879","FILE":"3494620","NORAD_CAT_ID":"49415","MEAN_MOTION_DDOT":"0.0000000000000","INCLINATION":"53.2158","OBJECT_ID":"2021-104H","ELEMENT_SET_NO":"999","TLE_LINE2":"2 49415  53.2158 227.7168 0002833  30.8466 329.2692 15.08840446 32665","OBJECT_TYPE":"PAYLOAD","COUNTRY_CODE":"US","EPHEMERIS_TYPE":"0","SITE":"AFETR","DECAY_DATE":null,"REF_FRAME":"TEME"},{"ARG_OF_PERICENTER":"29.9582","REV_AT_EPOCH":"3253","MEAN_MOTION":"15.08832939","CENTER_NAME":"EARTH","BSTAR":"-0.00002282700000","MEAN_ELEMENT_THEORY":"SGP4","GP_ID":"206060767","OBJECT_NAME":"STARLINK-3133","APOAPSIS":"541.668","RA_OF_ASC_NODE":"237.6895","TLE_LINE1":"1 49416U 21104J   22164.50035779 -.00000652  00000-0 -22827-4 0  9993","RCS_SIZE":"LARGE","EPOCH":"2022-06-13T12:00:30.913056","MEAN_ANOMALY":"330.1567","PERIAPSIS":"537.866","ECCENTRICITY":"0.00027480","CLASSIFICATION_TYPE":"U","EPHEMERIS_TYPE":"0","SITE":"AFETR","REF_FRAME":"TEME","DECAY_DATE":null,"ELEMENT_SET_NO":"999","OBJECT_TYPE":"PAYLOAD","TLE_LINE2":"2 49416  53.2164 237.6895 0002748  29.9582 330.1567 15.08832939 32539","COUNTRY_CODE":"US","SEMIMAJOR_AXIS":"6917.902","NORAD_CAT_ID":"49416","FILE":"3494620","MEAN_MOTION_DDOT":"0.0000000000000","OBJECT_ID":"2021-104J","INCLINATION":"53.2164","LAUNCH_DATE":"2021-11-13","MEAN_MOTION_DOT":"-0.00000652","TIME_SYSTEM":"UTC","PERIOD":"95.438"},{"MEAN_ANOMALY":"328.3874","PERIAPSIS":"537.859","ECCENTRICITY":"0.00027080","CLASSIFICATION_TYPE":"U","OBJECT_NAME":"STARLINK-3154","APOAPSIS":"541.606","RA_OF_ASC_NODE":"227.7316","TLE_LINE1":"1 49417U 21104K   22164.49391175  .00000837  00000-0  70711-4 0  9995","RCS_SIZE":"LARGE","EPOCH":"2022-06-13T11:51:13.975200","MEAN_MOTION":"15.08844135","CENTER_NAME":"EARTH","BSTAR":"0.00007071100000","MEAN_ELEMENT_THEORY":"SGP4","GP_ID":"206068706","REV_AT_EPOCH":"3377","ARG_OF_PERICENTER":"31.7281","LAUNCH_DATE":"2021-11-13","MEAN_MOTION_DOT":"0.00000837","TIME_SYSTEM":"UTC","PERIOD":"95.437","SEMIMAJOR_AXIS":"6917.868","FILE":"3494907","NORAD_CAT_ID":"49417","MEAN_MOTION_DDOT":"0.0000000000000","OBJECT_ID":"2021-104K","INCLINATION":"53.2168","ELEMENT_SET_NO":"999","OBJECT_TYPE":"PAYLOAD","TLE_LINE2":"2 49417  53.2168 227.7316 0002708  31.7281 328.3874 15.08844135 33773","COUNTRY_CODE":"US","EPHEMERIS_TYPE":"0","SITE":"AFETR","REF_FRAME":"TEME","DECAY_DATE":null},{"LAUNCH_DATE":"2021-11-13","PERIOD":"95.438","MEAN_MOTION_DOT":"-0.00000549","TIME_SYSTEM":"UTC","SEMIMAJOR_AXIS":"6917.881","FILE":"3494918","NORAD_CAT_ID":"49418","MEAN_MOTION_DDOT":"0.0000000000000","INCLINATION":"53.2182","OBJECT_ID":"2021-104L","ELEMENT_SET_NO":"999","OBJECT_TYPE":"PAYLOAD","TLE_LINE2":"2 49418  53.2182 237.4173 0002755  29.1324 330.9822 15.08839801 33631","COUNTRY_CODE":"US","EPHEMERIS_TYPE":"0","SITE":"AFETR","DECAY_DATE":null,"REF_FRAME":"TEME","MEAN_ANOMALY":"330.9822","PERIAPSIS":"537.840","CLASSIFICATION_TYPE":"U","ECCENTRICITY":"0.00027550","APOAPSIS":"541.652","OBJECT_NAME":"STARLINK-3111","TLE_LINE1":"1 49418U 21104L   22164.56291805 -.00000549  00000-0 -16361-4 0  9996","RCS_SIZE":"LARGE","EPOCH":"2022-06-13T13:30:36.119520","RA_OF_ASC_NODE":"237.4173","CENTER_NAME":"EARTH","MEAN_MOTION":"15.08839801","GP_ID":"206068308","MEAN_ELEMENT_THEORY":"SGP4","BSTAR":"-0.00001636100000","REV_AT_EPOCH":"3363","ARG_OF_PERICENTER":"29.1324"},{"LAUNCH_DATE":"2021-11-13","MEAN_MOTION_DOT":"-0.00000178","TIME_SYSTEM":"UTC","PERIOD":"95.437","SEMIMAJOR_AXIS":"6917.872","NORAD_CAT_ID":"49419","FILE":"3494908","MEAN_MOTION_DDOT":"0.0000000000000","OBJECT_ID":"2021-104M","INCLINATION":"53.2177","ELEMENT_SET_NO":"999","TLE_LINE2":"2 49419  53.2177 236.8723 0002298  38.7170 321.3987 15.08842866 33638","OBJECT_TYPE":"PAYLOAD","COUNTRY_CODE":"US","EPHEMERIS_TYPE":"0","SITE":"AFETR","REF_FRAME":"TEME","DECAY_DATE":null,"MEAN_ANOMALY":"321.3987","PERIAPSIS":"538.147","ECCENTRICITY":"0.00022980","CLASSIFICATION_TYPE":"U","OBJECT_NAME":"STARLINK-3120","APOAPSIS":"541.326","RA_OF_ASC_NODE":"236.8723","RCS_SIZE":"LARGE","TLE_LINE1":"1 49419U 21104M   22164.68435575 -.00000178  00000-0  69548-5 0  9997","EPOCH":"2022-06-13T16:25:28.336800","MEAN_MOTION":"15.08842866","CENTER_NAME":"EARTH","BSTAR":"0.00000695480000","MEAN_ELEMENT_THEORY":"SGP4","GP_ID":"206068315","REV_AT_EPOCH":"3363","ARG_OF_PERICENTER":"38.7170"},{"BSTAR":"0.00005313100000","MEAN_ELEMENT_THEORY":"SGP4","GP_ID":"206060268","MEAN_MOTION":"15.08838040","CENTER_NAME":"EARTH","ARG_OF_PERICENTER":"24.9953","REV_AT_EPOCH":"3252","ECCENTRICITY":"0.00027460","CLASSIFICATION_TYPE":"U","PERIAPSIS":"537.852","MEAN_ANOMALY":"335.1172","RA_OF_ASC_NODE":"237.7192","EPOCH":"2022-06-13T11:49:55.057440","RCS_SIZE":"LARGE","TLE_LINE1":"1 49420U 21104N   22164.49299835  .00000557  00000-0  53131-4 0  9995","OBJECT_NAME":"STARLINK-3110","APOAPSIS":"541.651","COUNTRY_CODE":"US","TLE_LINE2":"2 49420  53.2169 237.7192 0002746  24.9953 335.1172 15.08838040 32520","OBJECT_TYPE":"PAYLOAD","ELEMENT_SET_NO":"999","REF_FRAME":"TEME","DECAY_DATE":null,"SITE":"AFETR","EPHEMERIS_TYPE":"0","TIME_SYSTEM":"UTC","MEAN_MOTION_DOT":"0.00000557","PERIOD":"95.438","LAUNCH_DATE":"2021-11-13","OBJECT_ID":"2021-104N","INCLINATION":"53.2169","MEAN_MOTION_DDOT":"0.0000000000000","NORAD_CAT_ID":"49420","FILE":"3494620","SEMIMAJOR_AXIS":"6917.886"}];
